[{"OBJECT_NAME":"STARLINK-36732","OBJECT_ID":"2026-032S","EPOCH":"2026-03-15T12:00:27.699840","MEAN_MOTION":15.75200092,"ECCENTRICITY":0.00012555,"INCLINATION":97.284,"RA_OF_ASC_NODE":261.356,"ARG_OF_PERICENTER":26.3458,"MEAN_ANOMALY":333.7871,"EPHEMERIS_TYPE":0,"CLASSIFICATION_TYPE":"U","NORAD_CAT_ID":67813,"ELEMENT_SET_NO":999,"REV_AT_EPOCH":570,"BSTAR":0.0011978377,"MEAN_MOTION_DOT":0.00182484,"MEAN_MOTION_DDOT":0},{"OBJECT_NAME":"STARLINK-36767","OBJECT_ID":"2026-032T","EPOCH":"2026-03-15T12:28:54.804000","MEAN_MOTION":15.75226337,"ECCENTRICITY":0.0001791,"INCLINATION":97.2827,"RA_OF_ASC_NODE":261.3282,"ARG_OF_PERICENTER":70.7729,"MEAN_ANOMALY":289.373,"EPHEMERIS_TYPE":0,"CLASSIFICATION_TYPE":"U","NORAD_CAT_ID":67814,"ELEMENT_SET_NO":999,"REV_AT_EPOCH":570,"BSTAR":0.001264838,"MEAN_MOTION_DOT":0.00193163,"MEAN_MOTION_DDOT":0},{"OBJECT_NAME":"STARLINK-36797","OBJECT_ID":"2026-032U","EPOCH":"2026-03-15T12:16:12.618624","MEAN_MOTION":15.75232784,"ECCENTRICITY":0.00021623,"INCLINATION":97.2839,"RA_OF_ASC_NODE":261.3421,"ARG_OF_PERICENTER":69.6693,"MEAN_ANOMALY":290.4805,"EPHEMERIS_TYPE":0,"CLASSIFICATION_TYPE":"U","NORAD_CAT_ID":67815,"ELEMENT_SET_NO":999,"REV_AT_EPOCH":570,"BSTAR":0.0014016076,"MEAN_MOTION_DOT":0.00214672,"MEAN_MOTION_DDOT":0},{"OBJECT_NAME":"STARLINK-36343","OBJECT_ID":"2026-032V","EPOCH":"2026-03-15T11:47:44.926080","MEAN_MOTION":15.75227701,"ECCENTRICITY":0.0001321,"INCLINATION":97.2831,"RA_OF_ASC_NODE":261.3674,"ARG_OF_PERICENTER":70.9342,"MEAN_ANOMALY":289.2066,"EPHEMERIS_TYPE":0,"CLASSIFICATION_TYPE":"U","NORAD_CAT_ID":67816,"ELEMENT_SET_NO":999,"REV_AT_EPOCH":570,"BSTAR":0.0013096168,"MEAN_MOTION_DOT":0.00200181,"MEAN_MOTION_DDOT":0},{"OBJECT_NAME":"STARLINK-36756","OBJECT_ID":"2026-032W","EPOCH":"2026-03-15T12:03:30.361536","MEAN_MOTION":15.75188177,"ECCENTRICITY":8.163e-5,"INCLINATION":97.2839,"RA_OF_ASC_NODE":261.3529,"ARG_OF_PERICENTER":73.9716,"MEAN_ANOMALY":286.1639,"EPHEMERIS_TYPE":0,"CLASSIFICATION_TYPE":"U","NORAD_CAT_ID":67817,"ELEMENT_SET_NO":999,"REV_AT_EPOCH":569,"BSTAR":0.0009655313,"MEAN_MOTION_DOT":0.00146366,"MEAN_MOTION_DDOT":0},{"OBJECT_NAME":"STARLINK-36346","OBJECT_ID":"2026-032X","EPOCH":"2026-03-15T11:41:39.084288","MEAN_MOTION":15.75219993,"ECCENTRICITY":0.0001527,"INCLINATION":97.283,"RA_OF_ASC_NODE":261.3741,"ARG_OF_PERICENTER":35.2253,"MEAN_ANOMALY":324.9113,"EPHEMERIS_TYPE":0,"CLASSIFICATION_TYPE":"U","NORAD_CAT_ID":67818,"ELEMENT_SET_NO":999,"REV_AT_EPOCH":570,"BSTAR":0.0013768721,"MEAN_MOTION_DOT":0.00210659,"MEAN_MOTION_DDOT":0},{"OBJECT_NAME":"STARLINK-36788","OBJECT_ID":"2026-032Y","EPOCH":"2026-03-15T12:19:15.530880","MEAN_MOTION":15.75207358,"ECCENTRICITY":0.00019396,"INCLINATION":97.2838,"RA_OF_ASC_NODE":261.3381,"ARG_OF_PERICENTER":72.8033,"MEAN_ANOMALY":287.3444,"EPHEMERIS_TYPE":0,"CLASSIFICATION_TYPE":"U","NORAD_CAT_ID":67819,"ELEMENT_SET_NO":999,"REV_AT_EPOCH":570,"BSTAR":0.00084196026,"MEAN_MOTION_DOT":0.00127444,"MEAN_MOTION_DDOT":0},{"OBJECT_NAME":"STARLINK-36353","OBJECT_ID":"2026-032Z","EPOCH":"2026-03-15T12:13:40.414656","MEAN_MOTION":15.75230989,"ECCENTRICITY":0.00014179,"INCLINATION":97.2839,"RA_OF_ASC_NODE":261.343,"ARG_OF_PERICENTER":117.7838,"MEAN_ANOMALY":242.3571,"EPHEMERIS_TYPE":0,"CLASSIFICATION_TYPE":"U","NORAD_CAT_ID":67820,"ELEMENT_SET_NO":999,"REV_AT_EPOCH":570,"BSTAR":0.00079724787,"MEAN_MOTION_DOT":0.00120693,"MEAN_MOTION_DDOT":0},{"OBJECT_NAME":"STARLINK-36644","OBJECT_ID":"2026-033A","EPOCH":"2026-03-15T14:00:01.999872","MEAN_MOTION":15.64874189,"ECCENTRICITY":0.00016707,"INCLINATION":42.9992,"RA_OF_ASC_NODE":235.7245,"ARG_OF_PERICENTER":267.3599,"MEAN_ANOMALY":66.4981,"EPHEMERIS_TYPE":0,"CLASSIFICATION_TYPE":"U","NORAD_CAT_ID":67821,"ELEMENT_SET_NO":999,"REV_AT_EPOCH":561,"BSTAR":-0.022185222,"MEAN_MOTION_DOT":-0.01966169,"MEAN_MOTION_DDOT":0},{"OBJECT_NAME":"STARLINK-36643","OBJECT_ID":"2026-033B","EPOCH":"2026-03-15T14:00:01.999872","MEAN_MOTION":15.60253946,"ECCENTRICITY":0.00013534,"INCLINATION":42.9986,"RA_OF_ASC_NODE":235.9058,"ARG_OF_PERICENTER":263.6141,"MEAN_ANOMALY":357.5168,"EPHEMERIS_TYPE":0,"CLASSIFICATION_TYPE":"U","NORAD_CAT_ID":67822,"ELEMENT_SET_NO":999,"REV_AT_EPOCH":561,"BSTAR":-0.025801958,"MEAN_MOTION_DOT":-0.0191181,"MEAN_MOTION_DDOT":0},{"OBJECT_NAME":"STARLINK-36646","OBJECT_ID":"2026-033C","EPOCH":"2026-03-15T14:00:01.999872","MEAN_MOTION":15.63314307,"ECCENTRICITY":0.00016345,"INCLINATION":42.9993,"RA_OF_ASC_NODE":235.7621,"ARG_OF_PERICENTER":268.0591,"MEAN_ANOMALY":50.4262,"EPHEMERIS_TYPE":0,"CLASSIFICATION_TYPE":"U","NORAD_CAT_ID":67823,"ELEMENT_SET_NO":999,"REV_AT_EPOCH":561,"BSTAR":-0.023278141,"MEAN_MOTION_DOT":-0.01941376,"MEAN_MOTION_DDOT":0},{"OBJECT_NAME":"STARLINK-36647","OBJECT_ID":"2026-033D","EPOCH":"2026-03-15T14:00:01.999872","MEAN_MOTION":15.6143488,"ECCENTRICITY":0.00016492,"INCLINATION":42.9992,"RA_OF_ASC_NODE":235.8304,"ARG_OF_PERICENTER":267.2451,"MEAN_ANOMALY":23.6618,"EPHEMERIS_TYPE":0,"CLASSIFICATION_TYPE":"U","NORAD_CAT_ID":67824,"ELEMENT_SET_NO":999,"REV_AT_EPOCH":561,"BSTAR":-0.025117469,"MEAN_MOTION_DOT":-0.01944556,"MEAN_MOTION_DDOT":0},{"OBJECT_NAME":"STARLINK-36648","OBJECT_ID":"2026-033E","EPOCH":"2026-03-15T14:00:01.999872","MEAN_MOTION":15.71857793,"ECCENTRICITY":0.00015056,"INCLINATION":42.9995,"RA_OF_ASC_NODE":235.4767,"ARG_OF_PERICENTER":276.5357,"MEAN_ANOMALY":156.5897,"EPHEMERIS_TYPE":0,"CLASSIFICATION_TYPE":"U","NORAD_CAT_ID":67825,"ELEMENT_SET_NO":999,"REV_AT_EPOCH":561,"BSTAR":-0.01674376,"MEAN_MOTION_DOT":-0.01981545,"MEAN_MOTION_DDOT":0},{"OBJECT_NAME":"STARLINK-35865","OBJECT_ID":"2026-033F","EPOCH":"2026-03-15T14:00:01.999872","MEAN_MOTION":15.65338498,"ECCENTRICITY":0.00017558,"INCLINATION":42.9995,"RA_OF_ASC_NODE":235.6533,"ARG_OF_PERICENTER":273.2218,"MEAN_ANOMALY":88.7093,"EPHEMERIS_TYPE":0,"CLASSIFICATION_TYPE":"U","NORAD_CAT_ID":67826,"ELEMENT_SET_NO":999,"REV_AT_EPOCH":561,"BSTAR":-0.021821547,"MEAN_MOTION_DOT":-0.01970098,"MEAN_MOTION_DDOT":0},{"OBJECT_NAME":"STARLINK-36289","OBJECT_ID":"2026-033G","EPOCH":"2026-03-15T14:00:01.999872","MEAN_MOTION":15.61013523,"ECCENTRICITY":0.00015904,"INCLINATION":42.9993,"RA_OF_ASC_NODE":235.8171,"ARG_OF_PERICENTER":267.3996,"MEAN_ANOMALY":28.704,"EPHEMERIS_TYPE":0,"CLASSIFICATION_TYPE":"U","NORAD_CAT_ID":67827,"ELEMENT_SET_NO":999,"REV_AT_EPOCH":561,"BSTAR":-0.025603568,"MEAN_MOTION_DOT":-0.01949123,"MEAN_MOTION_DDOT":0},{"OBJECT_NAME":"STARLINK-36670","OBJECT_ID":"2026-033H","EPOCH":"2026-03-15T14:00:01.999872","MEAN_MOTION":15.62883984,"ECCENTRICITY":0.00016369,"INCLINATION":42.9992,"RA_OF_ASC_NODE":235.7251,"ARG_OF_PERICENTER":268.8916,"MEAN_ANOMALY":63.9463,"EPHEMERIS_TYPE":0,"CLASSIFICATION_TYPE":"U","NORAD_CAT_ID":67828,"ELEMENT_SET_NO":999,"REV_AT_EPOCH":561,"BSTAR":-0.02368349,"MEAN_MOTION_DOT":-0.01941673,"MEAN_MOTION_DDOT":0}]
